OBJECT_NAME,OBJECT_ID,EPOCH,MEAN_MOTION,ECCENTRICITY,INCLINATION,RA_OF_ASC_NODE,ARG_OF_PERICENTER,MEAN_ANOMALY,EPHEMERIS_TYPE,CLASSIFICATION_TYPE,NORAD_CAT_ID,ELEMENT_SET_NO,REV_AT_EPOCH,BSTAR,MEAN_MOTION_DOT,MEAN_MOTION_DDOT
SAR-LUPE 2,2007-030A,2026-06-25T14:33:12.652416,15.51525339,.00023826,98.1048,282.0903,184.8886,175.2341,0,U,31797,999,5824,.27647443E-3,.16255E-3,0
SAPPHIRE,2013-009C,2026-06-25T12:39:48.803616,14.35242655,.00103937,98.4264,355.7854,219.3820,140.6611,0,U,39088,999,69777,.48375738E-4,.96E-6,0
PRAETORIAN SDA_602,2025-203A,2026-06-25T13:16:15.710304,13.84278782,.00062445,81.3029,3.0189,163.1717,196.9648,0,U,65565,999,3985,.82116999E-4,.104E-5,0
PRAETORIAN SDA_603,2025-203B,2026-06-25T12:13:50.966688,13.83906066,.00097836,81.3036,2.9809,164.8941,195.2509,0,U,65566,999,3985,.1137647E-3,.138E-5,0
PRAETORIAN SDA_604,2025-203C,2026-06-25T12:49:39.809856,13.83048298,.00057336,81.3052,3.3829,168.6907,191.4379,0,U,65567,999,3983,.61599391E-4,.79E-6,0
PRAETORIAN SDA_605,2025-203D,2026-06-25T13:40:32.061792,13.83434874,.00085465,81.3019,3.0052,160.6129,199.5354,0,U,65568,999,3985,.44743036E-4,.61E-6,0
PRAETORIAN SDA_606,2025-203E,2026-06-25T13:17:29.828544,13.83198610,.00064192,81.3052,3.2479,163.2023,196.9347,0,U,65569,999,3984,.46805099E-4,.63E-6,0
PRAETORIAN SDA_607,2025-203F,2026-06-25T13:19:34.658400,13.84285329,.00091194,81.3041,2.8940,164.9125,195.2306,0,U,65570,999,3986,.15207974E-3,.182E-5,0
PRAETORIAN SDA_608,2025-203G,2026-06-25T12:51:05.841792,13.83817224,.00062326,81.3006,3.0776,167.9880,192.1426,0,U,65571,999,3984,.23306208E-4,.38E-6,0
PRAETORIAN SDA_609,2025-203H,2026-06-25T12:54:45.531072,13.84208761,.00071532,81.3050,3.0571,163.2910,196.8483,0,U,65572,999,3985,.16073637E-3,.191E-5,0
PRAETORIAN SDA_610,2025-203J,2026-06-25T12:22:20.431200,13.83768265,.00070043,81.3007,3.0548,167.6854,192.4475,0,U,65573,999,3984,.58550111E-4,.77E-6,0
PRAETORIAN SDA_611,2025-203K,2026-06-25T12:27:28.062720,13.83309771,.00057931,81.3009,3.2236,171.0389,189.0872,0,U,65574,999,3983,-.49176686E-4,-.42E-6,0
PRAETORIAN SDA_612,2025-203L,2026-06-25T13:41:33.878400,13.85040458,.00096228,81.3027,2.7407,163.9244,196.2220,0,U,65575,999,3987,.15827778E-3,.191E-5,0
PRAETORIAN SDA_613,2025-203M,2026-06-25T12:41:53.863296,13.82765800,.00060217,81.2999,3.2173,161.5585,198.5791,0,U,65576,999,3983,.52016801E-4,.68E-6,0
PRAETORIAN SDA_614,2025-203N,2026-06-25T11:44:12.751872,13.84777960,.00074865,81.3013,2.8966,161.3422,198.8011,0,U,65577,999,3986,.53740279E-4,.72E-6,0
PRAETORIAN SDA_615,2025-203P,2026-06-25T12:57:56.757600,13.84436425,.00093651,81.3022,2.8183,162.9723,197.1750,0,U,65578,999,3986,.14952653E-3,.179E-5,0
PRAETORIAN SDA_616,2025-203Q,2026-06-25T12:26:41.673696,13.83268768,.00057144,81.3059,3.3746,169.1294,190.9987,0,U,65579,999,3983,.13286859E-3,.158E-5,0
PRAETORIAN SDA_617,2025-203R,2026-06-25T12:58:49.628352,13.83150386,.00077504,81.3035,3.1841,161.6904,198.4533,0,U,65580,999,3984,.30600775E-4,.45E-6,0
PRAETORIAN SDA_618,2025-203S,2026-06-25T12:07:02.025984,13.84671050,.00101118,81.3017,2.7776,165.0450,195.1008,0,U,65581,999,3986,.99015063E-4,.123E-5,0
PRAETORIAN SDA_619,2025-203T,2026-06-25T13:06:16.109856,13.83806287,.00085221,81.3045,3.0499,163.1405,197.0036,0,U,65582,999,4048,.16929144E-3,.199E-5,0
PRAETORIAN SDA_620,2025-203U,2026-06-25T12:04:04.324512,13.83618556,.00079366,81.3028,3.1119,159.0884,201.0598,0,U,65583,999,3984,.53577262E-4,.71E-6,0
PRAETORIAN SDA_621,2025-203V,2026-06-25T13:08:51.504576,13.83802015,.00078112,81.3021,2.9849,156.5266,203.6249,0,U,65584,999,3985,.58504871E-4,.77E-6,0
PRAETORIAN SDA_601,2025-203W,2026-06-25T12:32:04.623936,13.83168312,.00056938,81.3041,3.3149,172.4167,187.7076,0,U,65585,999,3983,-.12745602E-4,-.2E-7,0
VICTUS HAZE PUMA,2026-142A,2026-06-25T15:18:31.245696,15.20709621,.00211354,97.4480,74.1659,297.4953,62.4134,0,U,69646,999,95,.19951417E-3,.4341E-4,0
