SAR-LUPE 2              
1 31797U 07030A   26176.60639644  .00016255  00000+0  27647-3 0  9994
2 31797  98.1048 282.0903 0002382 184.8886 175.2341 15.51525339 58242
SAPPHIRE                
1 39088U 13009C   26176.52764819  .00000096  00000+0  48376-4 0  9991
2 39088  98.4264 355.7854 0010393 219.3820 140.6611 14.35242655697773
PRAETORIAN SDA_602      
1 65565U 25203A   26176.55295961  .00000104  00000+0  82117-4 0  9990
2 65565  81.3029   3.0189 0006244 163.1717 196.9648 13.84278782 39853
PRAETORIAN SDA_603      
1 65566U 25203B   26176.50961767  .00000138  00000+0  11376-3 0  9995
2 65566  81.3036   2.9809 0009783 164.8941 195.2509 13.83906066 39857
PRAETORIAN SDA_604      
1 65567U 25203C   26176.53448854  .00000079  00000+0  61599-4 0  9993
2 65567  81.3052   3.3829 0005733 168.6907 191.4379 13.83048298 39833
PRAETORIAN SDA_605      
1 65568U 25203D   26176.56981553  .00000061  00000+0  44743-4 0  9998
2 65568  81.3019   3.0052 0008546 160.6129 199.5354 13.83434874 39858
PRAETORIAN SDA_606      
1 65569U 25203E   26176.55381746  .00000063  00000+0  46805-4 0  9999
2 65569  81.3052   3.2479 0006419 163.2023 196.9347 13.83198610 39847
PRAETORIAN SDA_607      
1 65570U 25203F   26176.55526225  .00000182  00000+0  15208-3 0  9998
2 65570  81.3041   2.8940 0009119 164.9125 195.2306 13.84285329 39860
PRAETORIAN SDA_608      
1 65571U 25203G   26176.53548428  .00000038  00000+0  23306-4 0  9995
2 65571  81.3006   3.0776 0006232 167.9880 192.1426 13.83817224 39847
PRAETORIAN SDA_609      
1 65572U 25203H   26176.53802698  .00000191  00000+0  16074-3 0  9991
2 65572  81.3050   3.0571 0007153 163.2910 196.8483 13.84208761 39852
PRAETORIAN SDA_610      
1 65573U 25203J   26176.51551425  .00000077  00000+0  58550-4 0  9998
2 65573  81.3007   3.0548 0007004 167.6854 192.4475 13.83768265 39840
PRAETORIAN SDA_611      
1 65574U 25203K   26176.51907480 -.00000042  00000+0 -49177-4 0  9994
2 65574  81.3009   3.2236 0005793 171.0389 189.0872 13.83309771 39839
PRAETORIAN SDA_612      
1 65575U 25203L   26176.57053100  .00000191  00000+0  15828-3 0  9990
2 65575  81.3027   2.7407 0009622 163.9244 196.2220 13.85040458 39876
PRAETORIAN SDA_613      
1 65576U 25203M   26176.52909564  .00000068  00000+0  52017-4 0  9995
2 65576  81.2999   3.2173 0006021 161.5585 198.5791 13.82765800 39838
PRAETORIAN SDA_614      
1 65577U 25203N   26176.48903648  .00000072  00000+0  53740-4 0  9997
2 65577  81.3013   2.8966 0007486 161.3422 198.8011 13.84777960 39869
PRAETORIAN SDA_615      
1 65578U 25203P   26176.54024025  .00000179  00000+0  14953-3 0  9998
2 65578  81.3022   2.8183 0009365 162.9723 197.1750 13.84436425 39860
PRAETORIAN SDA_616      
1 65579U 25203Q   26176.51853789  .00000158  00000+0  13287-3 0  9999
2 65579  81.3059   3.3746 0005714 169.1294 190.9987 13.83268768 39830
PRAETORIAN SDA_617      
1 65580U 25203R   26176.54085218  .00000045  00000+0  30601-4 0  9993
2 65580  81.3035   3.1841 0007750 161.6904 198.4533 13.83150386 39844
PRAETORIAN SDA_618      
1 65581U 25203S   26176.50488456  .00000123  00000+0  99015-4 0  9992
2 65581  81.3017   2.7776 0010111 165.0450 195.1008 13.84671050 39866
PRAETORIAN SDA_619      
1 65582U 25203T   26176.54601979  .00000199  00000+0  16929-3 0  9999
2 65582  81.3045   3.0499 0008522 163.1405 197.0036 13.83806287 40489
PRAETORIAN SDA_620      
1 65583U 25203U   26176.50282783  .00000071  00000+0  53577-4 0  9994
2 65583  81.3028   3.1119 0007936 159.0884 201.0598 13.83618556 39841
PRAETORIAN SDA_621      
1 65584U 25203V   26176.54781834  .00000077  00000+0  58505-4 0  9992
2 65584  81.3021   2.9849 0007811 156.5266 203.6249 13.83802015 39857
PRAETORIAN SDA_601      
1 65585U 25203W   26176.52227574 -.00000002  00000+0 -12746-4 0  9994
2 65585  81.3041   3.3149 0005693 172.4167 187.7076 13.83168312 39834
VICTUS HAZE PUMA        
1 69646U 26142A   26176.63786164  .00004341  00000+0  19951-3 0  9998
2 69646  97.4480  74.1659 0021135 297.4953  62.4134 15.20709621   955
